start=new Date('2022-03-14T00:00:00.000Z').valueOf();
sats=[{"RCS_SIZE":"LARGE","OBJECT_TYPE":"PAYLOAD","OBJECT_ID":"2020-012BJ","INCLINATION":"53.0546","COUNTRY_CODE":"US","MEAN_MOTION_DDOT":"0.0000000000000","DECAY_DATE":null,"NORAD_CAT_ID":"45234","REF_FRAME":"TEME","MEAN_ANOMALY":"294.6510","PERIOD":"95.592","BSTAR":"-0.00000605200000","MEAN_ELEMENT_THEORY":"SGP4","CENTER_NAME":"EARTH","APOAPSIS":"548.278","REV_AT_EPOCH":"11522","TLE_LINE1":"1 45234U 20012BJ  22072.81347230 -.00000372  00000-0 -60520-5 0  9996","SEMIMAJOR_AXIS":"6925.359","GP_ID":"198686296","ECCENTRICITY":"0.00015220","EPHEMERIS_TYPE":"0","CLASSIFICATION_TYPE":"U","MEAN_MOTION_DOT":"-0.00000372","OBJECT_NAME":"STARLINK-1243","TIME_SYSTEM":"UTC","MEAN_MOTION":"15.06396558","ELEMENT_SET_NO":"999","EPOCH":"2022-03-13T19:31:24.006720","FILE":"3358388","LAUNCH_DATE":"2020-02-17","SITE":"AFETR","TLE_LINE2":"2 45234  53.0546 106.7799 0001522  65.4637 294.6510 15.06396558115229","PERIAPSIS":"546.170","RA_OF_ASC_NODE":"106.7799","ARG_OF_PERICENTER":"65.4637"},{"EPOCH":"2022-03-13T19:10:10.161408","FILE":"3358137","ELEMENT_SET_NO":"999","TIME_SYSTEM":"UTC","MEAN_MOTION":"15.06398293","ARG_OF_PERICENTER":"51.2413","PERIAPSIS":"546.068","RA_OF_ASC_NODE":"106.8602","LAUNCH_DATE":"2020-02-17","TLE_LINE2":"2 45235  53.0525 106.8602 0001662  51.2413 308.8724 15.06398293114346","SITE":"AFETR","EPHEMERIS_TYPE":"0","ECCENTRICITY":"0.00016620","MEAN_MOTION_DOT":"-0.00001186","OBJECT_NAME":"STARLINK-1246","CLASSIFICATION_TYPE":"U","APOAPSIS":"548.370","MEAN_ELEMENT_THEORY":"SGP4","CENTER_NAME":"EARTH","MEAN_ANOMALY":"308.8724","PERIOD":"95.592","REF_FRAME":"TEME","BSTAR":"-0.00006073600000","REV_AT_EPOCH":"11434","TLE_LINE1":"1 45235U 20012BK  22072.79872872 -.00001186  00000-0 -60736-4 0  9991","GP_ID":"198660582","SEMIMAJOR_AXIS":"6925.354","OBJECT_ID":"2020-012BK","OBJECT_TYPE":"PAYLOAD","RCS_SIZE":"LARGE","DECAY_DATE":null,"MEAN_MOTION_DDOT":"0.0000000000000","NORAD_CAT_ID":"45235","COUNTRY_CODE":"US","INCLINATION":"53.0525"},{"RCS_SIZE":"LARGE","OBJECT_TYPE":"PAYLOAD","OBJECT_ID":"2020-012BL","COUNTRY_CODE":"US","INCLINATION":"53.0536","NORAD_CAT_ID":"45236","DECAY_DATE":null,"MEAN_MOTION_DDOT":"0.0000000000000","BSTAR":"-0.00000715130000","MEAN_ANOMALY":"318.3710","PERIOD":"95.593","REF_FRAME":"TEME","APOAPSIS":"548.633","MEAN_ELEMENT_THEORY":"SGP4","CENTER_NAME":"EARTH","SEMIMAJOR_AXIS":"6925.370","GP_ID":"198686790","REV_AT_EPOCH":"11579","TLE_LINE1":"1 45236U 20012BL  22072.71395585 -.00000388  00000-0 -71513-5 0  9994","ECCENTRICITY":"0.00020190","EPHEMERIS_TYPE":"0","CLASSIFICATION_TYPE":"U","OBJECT_NAME":"STARLINK-1247","MEAN_MOTION_DOT":"-0.00000388","MEAN_MOTION":"15.06392926","TIME_SYSTEM":"UTC","FILE":"3358388","EPOCH":"2022-03-13T17:08:05.785440","ELEMENT_SET_NO":"999","TLE_LINE2":"2 45236  53.0536  67.2281 0002019  41.7433 318.3710 15.06392926115793","SITE":"AFETR","LAUNCH_DATE":"2020-02-17","ARG_OF_PERICENTER":"41.7433","RA_OF_ASC_NODE":"67.2281","PERIAPSIS":"545.837"},{"MEAN_MOTION":"15.06396150","TIME_SYSTEM":"UTC","FILE":"3358388","EPOCH":"2022-03-13T22:26:33.949824","ELEMENT_SET_NO":"999","TLE_LINE2":"2 45237  53.0551  66.2603 0002046  41.6798 318.4347 15.06396150115836","SITE":"AFETR","LAUNCH_DATE":"2020-02-17","ARG_OF_PERICENTER":"41.6798","RA_OF_ASC_NODE":"66.2603","PERIAPSIS":"545.808","ECCENTRICITY":"0.00020460","EPHEMERIS_TYPE":"0","CLASSIFICATION_TYPE":"U","OBJECT_NAME":"STARLINK-1270","MEAN_MOTION_DOT":"-0.00002308","BSTAR":"-0.00013612000000","MEAN_ANOMALY":"318.4347","PERIOD":"95.592","REF_FRAME":"TEME","APOAPSIS":"548.642","CENTER_NAME":"EARTH","MEAN_ELEMENT_THEORY":"SGP4","GP_ID":"198686048","SEMIMAJOR_AXIS":"6925.360","REV_AT_EPOCH":"11583","TLE_LINE1":"1 45237U 20012BM  22072.93511516 -.00002308  00000-0 -13612-3 0  9991","RCS_SIZE":"LARGE","OBJECT_TYPE":"PAYLOAD","OBJECT_ID":"2020-012BM","COUNTRY_CODE":"US","INCLINATION":"53.0551","NORAD_CAT_ID":"45237","DECAY_DATE":null,"MEAN_MOTION_DDOT":"0.0000000000000"},{"INCLINATION":"53.0535","COUNTRY_CODE":"US","MEAN_MOTION_DDOT":"0.0000000000000","DECAY_DATE":null,"NORAD_CAT_ID":"45360","RCS_SIZE":"LARGE","OBJECT_TYPE":"PAYLOAD","OBJECT_ID":"2020-019A","TLE_LINE1":"1 45360U 20019A   22072.82729544 -.00002892  00000-0 -17538-3 0  9994","REV_AT_EPOCH":"11055","SEMIMAJOR_AXIS":"6925.390","GP_ID":"198664180","REF_FRAME":"TEME","MEAN_ANOMALY":"289.3225","PERIOD":"95.593","BSTAR":"-0.00017538000000","MEAN_ELEMENT_THEORY":"SGP4","CENTER_NAME":"EARTH","APOAPSIS":"548.229","CLASSIFICATION_TYPE":"U","MEAN_MOTION_DOT":"-0.00002892","OBJECT_NAME":"STARLINK-1279","ECCENTRICITY":"0.00014070","EPHEMERIS_TYPE":"0","LAUNCH_DATE":"2020-03-18","SITE":"AFETR","TLE_LINE2":"2 45360  53.0535 196.7276 0001407  70.7916 289.3225 15.06386534110555","RA_OF_ASC_NODE":"196.7276","PERIAPSIS":"546.280","ARG_OF_PERICENTER":"70.7916","TIME_SYSTEM":"UTC","MEAN_MOTION":"15.06386534","ELEMENT_SET_NO":"999","EPOCH":"2022-03-13T19:51:18.326016","FILE":"3358266"},{"OBJECT_ID":"2020-019B","OBJECT_TYPE":"PAYLOAD","RCS_SIZE":"LARGE","NORAD_CAT_ID":"45361","MEAN_MOTION_DDOT":"0.0000000000000","DECAY_DATE":null,"INCLINATION":"53.0539","COUNTRY_CODE":"US","CENTER_NAME":"EARTH","MEAN_ELEMENT_THEORY":"SGP4","APOAPSIS":"548.101","BSTAR":"0.00006738600000","REF_FRAME":"TEME","PERIOD":"95.592","MEAN_ANOMALY":"277.0618","GP_ID":"198685561","SEMIMAJOR_AXIS":"6925.336","TLE_LINE1":"1 45361U 20019B   22072.68260830  .00000723  00000-0  67386-4 0  9993","REV_AT_EPOCH":"11040","EPHEMERIS_TYPE":"0","ECCENTRICITY":"0.00013000","OBJECT_NAME":"STARLINK-1301","MEAN_MOTION_DOT":"0.00000723","CLASSIFICATION_TYPE":"U","ELEMENT_SET_NO":"999","FILE":"3358388","EPOCH":"2022-03-13T16:22:57.357120","MEAN_MOTION":"15.06404068","TIME_SYSTEM":"UTC","PERIAPSIS":"546.301","RA_OF_ASC_NODE":"207.3743","ARG_OF_PERICENTER":"83.0519","SITE":"AFETR","TLE_LINE2":"2 45361  53.0539 207.3743 0001300  83.0519 277.0618 15.06404068110403","LAUNCH_DATE":"2020-03-18"},{"ELEMENT_SET_NO":"999","FILE":"3358388","EPOCH":"2022-03-13T19:04:51.373920","TIME_SYSTEM":"UTC","MEAN_MOTION":"15.06404908","RA_OF_ASC_NODE":"226.8701","PERIAPSIS":"546.217","ARG_OF_PERICENTER":"71.6909","LAUNCH_DATE":"2020-03-18","SITE":"AFETR","TLE_LINE2":"2 45362  53.0548 226.8701 0001417  71.6909 288.4234 15.06404908110132","EPHEMERIS_TYPE":"0","ECCENTRICITY":"0.00014170","MEAN_MOTION_DOT":"-0.00000201","OBJECT_NAME":"STARLINK-1306","CLASSIFICATION_TYPE":"U","MEAN_ELEMENT_THEORY":"SGP4","CENTER_NAME":"EARTH","APOAPSIS":"548.180","REF_FRAME":"TEME","PERIOD":"95.592","MEAN_ANOMALY":"288.4234","BSTAR":"0.00000540600000","TLE_LINE1":"1 45362U 20019C   22072.79503905 -.00000201  00000-0  54060-5 0  9997","REV_AT_EPOCH":"11013","SEMIMAJOR_AXIS":"6925.334","GP_ID":"198686310","OBJECT_ID":"2020-019C","OBJECT_TYPE":"PAYLOAD","RCS_SIZE":"LARGE","DECAY_DATE":null,"MEAN_MOTION_DDOT":"0.0000000000000","NORAD_CAT_ID":"45362","INCLINATION":"53.0548","COUNTRY_CODE":"US"},{"INCLINATION":"53.0538","COUNTRY_CODE":"US","NORAD_CAT_ID":"45364","DECAY_DATE":null,"MEAN_MOTION_DDOT":"0.0000000000000","OBJECT_TYPE":"PAYLOAD","RCS_SIZE":"LARGE","OBJECT_ID":"2020-019E","SEMIMAJOR_AXIS":"6925.311","GP_ID":"198664331","REV_AT_EPOCH":"11055","TLE_LINE1":"1 45364U 20019E   22072.82359939  .00007238  00000-0  50417-3 0  9995","BSTAR":"0.00050417000000","REF_FRAME":"TEME","MEAN_ANOMALY":"313.7619","PERIOD":"95.591","MEAN_ELEMENT_THEORY":"SGP4","CENTER_NAME":"EARTH","APOAPSIS":"548.490","CLASSIFICATION_TYPE":"U","OBJECT_NAME":"STARLINK-1313","MEAN_MOTION_DOT":"0.00007238","ECCENTRICITY":"0.00018970","EPHEMERIS_TYPE":"0","SITE":"AFETR","TLE_LINE2":"2 45364  53.0538 196.7501 0001897  46.3527 313.7619 15.06412322110557","LAUNCH_DATE":"2020-03-18","RA_OF_ASC_NODE":"196.7501","PERIAPSIS":"545.862","ARG_OF_PERICENTER":"46.3527","MEAN_MOTION":"15.06412322","TIME_SYSTEM":"UTC","ELEMENT_SET_NO":"999","FILE":"3358276","EPOCH":"2022-03-13T19:45:58.987296"},{"OBJECT_NAME":"STARLINK-1317","MEAN_MOTION_DOT":"-0.00000952","CLASSIFICATION_TYPE":"U","EPHEMERIS_TYPE":"0","ECCENTRICITY":"0.00015070","PERIAPSIS":"548.679","RA_OF_ASC_NODE":"207.5523","ARG_OF_PERICENTER":"77.5950","SITE":"AFETR","TLE_LINE2":"2 45365  52.9994 207.5523 0001507  77.5950 282.5207 15.05581719110351","LAUNCH_DATE":"2020-03-18","ELEMENT_SET_NO":"999","FILE":"3358388","EPOCH":"2022-03-13T15:31:26.562144","MEAN_MOTION":"15.05581719","TIME_SYSTEM":"UTC","NORAD_CAT_ID":"45365","DECAY_DATE":null,"MEAN_MOTION_DDOT":"0.0000000000000","INCLINATION":"52.9994","COUNTRY_CODE":"US","OBJECT_ID":"2020-019F","OBJECT_TYPE":"PAYLOAD","RCS_SIZE":"LARGE","GP_ID":"198686804","SEMIMAJOR_AXIS":"6927.858","TLE_LINE1":"1 45365U 20019F   22072.64683521 -.00000952  00000-0 -46136-4 0  9995","REV_AT_EPOCH":"11035","MEAN_ELEMENT_THEORY":"SGP4","CENTER_NAME":"EARTH","APOAPSIS":"550.767","BSTAR":"-0.00004613600000","REF_FRAME":"TEME","MEAN_ANOMALY":"282.5207","PERIOD":"95.644"},{"REV_AT_EPOCH":"11013","TLE_LINE1":"1 45366U 20019G   22072.71395269  .00001129  00000-0  94642-4 0  9993","SEMIMAJOR_AXIS":"6925.322","GP_ID":"198686062","APOAPSIS":"548.246","MEAN_ELEMENT_THEORY":"SGP4","CENTER_NAME":"EARTH","MEAN_ANOMALY":"285.0606","PERIOD":"95.592","REF_FRAME":"TEME","BSTAR":"0.00009464200000","MEAN_MOTION_DDOT":"0.0000000000000","DECAY_DATE":null,"NORAD_CAT_ID":"45366","COUNTRY_CODE":"US","INCLINATION":"53.0545","OBJECT_ID":"2020-019G","OBJECT_TYPE":"PAYLOAD","RCS_SIZE":"LARGE","ARG_OF_PERICENTER":"75.0552","RA_OF_ASC_NODE":"227.2275","PERIAPSIS":"546.129","LAUNCH_DATE":"2020-03-18","TLE_LINE2":"2 45366  53.0545 227.2275 0001529  75.0552 285.0606 15.06408510110139","SITE":"AFETR","FILE":"3358388","EPOCH":"2022-03-13T17:08:05.512416","ELEMENT_SET_NO":"999","TIME_SYSTEM":"UTC","MEAN_MOTION":"15.06408510","MEAN_MOTION_DOT":"0.00001129","OBJECT_NAME":"STARLINK-1262","CLASSIFICATION_TYPE":"U","EPHEMERIS_TYPE":"0","ECCENTRICITY":"0.00015290"}];
